OBJECT_NAME,OBJECT_ID,EPOCH,MEAN_MOTION,ECCENTRICITY,INCLINATION,RA_OF_ASC_NODE,ARG_OF_PERICENTER,MEAN_ANOMALY,EPHEMERIS_TYPE,CLASSIFICATION_TYPE,NORAD_CAT_ID,ELEMENT_SET_NO,REV_AT_EPOCH,BSTAR,MEAN_MOTION_DOT,MEAN_MOTION_DDOT
BEIDOU-2 IGSO-5 (C10),2011-073A,2026-06-16T18:34:46.382016,1.00272872,.0113948,47.6787,271.5506,221.6919,142.2288,0,U,37948,999,5313,0,-.173E-5,0
LUCH 5A (SDCM/PRN 140),2011-074B,2026-06-16T12:38:10.579776,1.00270124,.000221,8.7528,73.8170,23.4514,164.0170,0,U,37951,999,5304,0,-.58E-6,0
BEIDOU-2 G5 (C05),2012-008A,2026-06-16T22:29:17.664864,1.00271748,.00091168,3.5729,69.6947,272.6810,318.7987,0,U,38091,999,5236,0,.52E-6,0
BEIDOU-2 M3 (C11),2012-018A,2026-06-17T04:31:42.129120,1.86229716,.00201126,55.7579,304.8756,273.8659,85.8906,0,U,38250,999,9594,0,-.73E-6,0
BEIDOU-2 M4 (C12),2012-018B,2026-06-16T14:00:59.298624,1.86229384,.0011291,55.6587,304.1100,275.7824,84.0741,0,U,38251,999,9593,0,-.71E-6,0
SES-5 (EGNOS/PRN 136),2012-036A,2026-06-16T18:10:08.235264,1.00264687,.00018585,0.0491,313.9360,141.1437,87.4557,0,U,38652,999,4445,0,.3E-6,0
BEIDOU-2 M6 (C14),2012-050B,2026-06-13T01:43:42.616992,1.86230840,.0013772,56.5408,63.0305,356.7295,3.2873,0,U,38775,999,9323,0,-.56E-6,0
GSAT-10 (GAGAN/PRN 128),2012-051B,2026-06-16T23:40:31.541088,1.00269889,.00077996,0.0809,262.5781,184.8512,255.9545,0,U,38779,999,5009,0,-.168E-5,0
GPS BIIF-3  (PRN 24),2012-053A,2026-06-17T07:35:18.520512,2.00567430,.01803257,53.5861,143.5940,65.7545,296.0818,0,U,38833,999,9944,0,.38E-6,0
GSAT0103 (GALILEO-FM3),2012-055A,2026-06-16T07:15:30.262176,1.70473326,.00047823,55.8061,101.5699,306.3587,53.5598,0,U,38857,999,8499,0,-.13E-6,0
BEIDOU-2 G6 (C02),2012-059A,2026-06-16T17:43:14.571840,1.00272017,.00095865,4.4198,73.5241,324.3071,217.0195,0,U,38953,999,4990,0,-.181E-5,0
LUCH 5B (SDCM/PRN 125),2012-061A,2026-06-15T23:14:56.884416,1.00272153,.00025217,10.4794,49.8909,151.7333,35.0817,0,U,38977,999,4959,0,-.144E-5,0
COSMOS 2485 (747),2013-019A,2026-06-16T21:50:24.304992,2.13103263,.00231668,65.4195,73.6141,234.1485,125.6705,0,U,39155,999,10227,0,-.2E-6,0
GPS BIIF-4  (PRN 27),2013-023A,2026-06-17T04:23:46.264704,2.00563399,.01415423,54.5040,268.9738,51.0481,310.2424,0,U,39166,999,9588,0,-.27E-6,0
IRNSS-1A,2013-034A,2026-06-09T14:20:49.169184,1.00272948,.00174117,35.7049,63.9797,184.2474,279.8453,0,U,39199,999,4729,0,.7E-6,0
GPS BIIF-5  (PRN 30),2014-008A,2026-06-17T04:26:06.950688,2.00559732,.0084225,53.6546,149.3197,231.2800,127.9365,0,U,39533,999,8968,0,.42E-6,0
ASTRA 5B (EGNOS/PRN 123),2014-011B,2026-06-16T23:23:29.474880,1.00272224,.00018632,0.0707,307.1426,147.0318,185.4434,0,U,39617,999,4466,0,.134E-5,0
COSMOS 2492 (754),2014-012A,2026-06-16T20:51:10.019808,2.13103188,.00104027,65.2979,313.9469,324.9131,35.0034,0,U,39620,999,9523,0,-.54E-6,0
IRNSS-1B,2014-017A,2026-06-16T18:24:44.637120,1.00276230,.00230875,28.9227,240.4107,189.8783,166.0734,0,U,39635,999,4478,0,.124E-5,0
LUCH 5V (SDCM/PRN 141),2014-023A,2026-06-16T18:35:53.774880,1.00274535,.00018324,5.1311,69.7444,48.8858,160.0851,0,U,39727,999,4435,0,-.275E-5,0
GPS BIIF-6  (PRN 06),2014-026A,2026-06-16T23:04:52.888800,2.00560889,.00381679,56.4984,331.5261,326.5610,33.1892,0,U,39741,999,8853,0,-.84E-6,0
COSMOS 2500 (755),2014-032A,2026-06-13T06:49:49.213632,2.13106047,.0007281,65.2352,313.8168,184.1744,175.8059,0,U,40001,999,9337,0,-.51E-6,0
GPS BIIF-7  (PRN 09),2014-045A,2026-06-17T01:17:01.893696,2.00558324,.00332835,55.3532,88.4703,118.2771,242.0574,0,U,40105,999,8607,0,-.21E-6,0
GSAT0201 (GALILEO 5),2014-050A,2026-06-17T10:00:23.303232,1.85519962,.16745574,48.8753,273.4270,179.4035,180.8790,0,U,40128,999,7832,0,-.52E-6,0
GSAT0202 (GALILEO 6),2014-050B,2026-06-17T03:12:13.723488,1.85520514,.16757933,48.8923,272.5241,180.1173,179.8932,0,U,40129,999,8048,0,-.48E-6,0
IRNSS-1C,2014-061A,2026-06-16T17:43:31.886400,1.00269403,.00227173,6.5166,88.9398,2.3779,162.5464,0,U,40269,999,4268,0,-.167E-5,0
GPS BIIF-8  (PRN 03),2014-068A,2026-06-16T22:09:45.635904,2.00576071,.00670513,56.9874,30.9648,70.5842,290.1982,0,U,40294,999,8520,0,-.73E-6,0
COSMOS 2501 (702K),2014-075A,2026-06-17T07:13:01.008768,2.13101233,.00226308,63.6163,190.3680,212.5057,147.4049,0,U,40315,999,8985,0,.63E-6,0
GPS BIIF-9  (PRN 26),2015-013A,2026-06-17T01:29:55.731840,2.00551386,.01095131,53.1678,204.1827,40.1299,320.7457,0,U,40534,999,8182,0,.48E-6,0
GSAT0203 (GALILEO 7),2015-017A,2026-06-15T10:52:25.074336,1.70475984,.00020923,56.7863,341.6427,278.6810,81.2938,0,U,40544,999,6917,0,-.83E-6,0
GSAT0204 (GALILEO 8),2015-017B,2026-06-14T12:51:23.627232,1.70475571,.00019104,56.7953,341.6863,248.0709,111.9109,0,U,40545,999,3220,0,-.79E-6,0
