BEIDOU-2 IGSO-5         
1 37948U 11073A   26167.77414794 -.00000173  00000+0  00000+0 0  9998
2 37948  47.6787 271.5506 0113948 221.6919 142.2288  1.00272872 53132
LUCH-5A                 
1 37951U 11074B   26167.52651134 -.00000058  00000+0  00000+0 0  9999
2 37951   8.7528  73.8170 0002210  23.4514 164.0170  1.00270124 53045
BEIDOU-2 G5             
1 38091U 12008A   26167.93701001  .00000052  00000+0  00000+0 0  9990
2 38091   3.5729  69.6947 0009116 272.6810 318.7987  1.00271748 52362
BEIDOU-2 M3             
1 38250U 12018A   26168.18868205 -.00000073  00000+0  00000+0 0  9990
2 38250  55.7579 304.8756 0020112 273.8659  85.8906  1.86229716 95942
BEIDOU-2 M4             
1 38251U 12018B   26167.58401966 -.00000071  00000+0  00000+0 0  9999
2 38251  55.6587 304.1100 0011291 275.7824  84.0741  1.86229384 95938
SES-5                   
1 38652U 12036A   26167.75703976  .00000030  00000+0  00000+0 0  9993
2 38652   0.0491 313.9360 0001858 141.1437  87.4557  1.00264687 44455
BEIDOU-2 M6             
1 38775U 12050B   26164.07202103 -.00000056  00000+0  00000+0 0  9992
2 38775  56.5408  63.0305 0013772 356.7295   3.2873  1.86230840 93236
GSAT-10                 
1 38779U 12051B   26167.98647617 -.00000168  00000+0  00000+0 0  9997
2 38779   0.0809 262.5781 0007799 184.8512 255.9545  1.00269889 50097
NAVSTAR 67 (USA 239)    
1 38833U 12053A   26168.31618658  .00000038  00000+0  00000+0 0  9996
2 38833  53.5861 143.5940 0180325  65.7545 296.0818  2.00567430 99449
GSAT0103 (GALILEO-FM3)  
1 38857U 12055A   26167.30243359 -.00000013  00000+0  00000+0 0  9998
2 38857  55.8061 101.5699 0004782 306.3587  53.5598  1.70473326 84990
BEIDOU-2 G6             
1 38953U 12059A   26167.73836310 -.00000181  00000+0  00000+0 0  9997
2 38953   4.4198  73.5241 0009586 324.3071 217.0195  1.00272017 49903
LUCH-5B                 
1 38977U 12061A   26166.96871394 -.00000144  00000+0  00000+0 0  9990
2 38977  10.4794  49.8909 0002521 151.7333  35.0817  1.00272153 49595
COSMOS 2485 [GLONASS-M] 
1 39155U 13019A   26167.91000353 -.00000020  00000+0  00000+0 0  9991
2 39155  65.4195  73.6141 0023166 234.1485 125.6705  2.13103263102271
NAVSTAR 68 (USA 242)    
1 39166U 13023A   26168.18317436 -.00000027  00000+0  00000+0 0  9998
2 39166  54.5040 268.9738 0141542  51.0481 310.2424  2.00563399 95887
IRNSS-1A                
1 39199U 13034A   26160.59779131  .00000070  00000+0  00000+0 0  9994
2 39199  35.7049  63.9797 0017411 184.2474 279.8453  1.00272948 47299
NAVSTAR 69 (USA 248)    
1 39533U 14008A   26168.18480267  .00000042  00000+0  00000+0 0  9999
2 39533  53.6546 149.3197 0084225 231.2800 127.9365  2.00559732 89682
ASTRA 5B                
1 39617U 14011B   26167.97464670  .00000134  00000+0  00000+0 0  9994
2 39617   0.0707 307.1426 0001863 147.0318 185.4434  1.00272224 44666
COSMOS 2492 [GLONASS-M] 
1 39620U 14012A   26167.86886597 -.00000054  00000+0  00000+0 0  9995
2 39620  65.2979 313.9469 0010402 324.9131  35.0034  2.13103188 95236
IRNSS-1B                
1 39635U 14017A   26167.76718330  .00000124  00000+0  00000+0 0  9991
2 39635  28.9227 240.4107 0023087 189.8783 166.0734  1.00276230 44781
LUCH-5V                 
1 39727U 14023A   26167.77492795 -.00000275  00000+0  00000+0 0  9993
2 39727   5.1311  69.7444 0001832  48.8858 160.0851  1.00274535 44354
NAVSTAR 70 (USA 251)    
1 39741U 14026A   26167.96172325 -.00000084  00000+0  00000+0 0  9995
2 39741  56.4984 331.5261 0038167 326.5610  33.1892  2.00560889 88539
COSMOS 2500 [GLONASS-M] 
1 40001U 14032A   26164.28459738 -.00000051  00000+0  00000+0 0  9995
2 40001  65.2352 313.8168 0007281 184.1744 175.8059  2.13106047 93378
NAVSTAR 71 (USA 256)    
1 40105U 14045A   26168.05349414 -.00000021  00000+0  00000+0 0  9999
2 40105  55.3532  88.4703 0033283 118.2771 242.0574  2.00558324 86075
GSAT0201 (GALILEO 5)    
1 40128U 14050A   26168.41693638 -.00000052  00000+0  00000+0 0  9994
2 40128  48.8753 273.4270 1674557 179.4035 180.8790  1.85519962 78320
GSAT0202 (GALILEO 6)    
1 40129U 14050B   26168.13349217 -.00000048  00000+0  00000+0 0  9990
2 40129  48.8923 272.5241 1675793 180.1173 179.8932  1.85520514 80484
IRNSS-1C                
1 40269U 14061A   26167.73856350 -.00000167  00000+0  00000+0 0  9995
2 40269   6.5166  88.9398 0022717   2.3779 162.5464  1.00269403 42682
NAVSTAR 72 (USA 258)    
1 40294U 14068A   26167.92344486 -.00000073  00000+0  00000+0 0  9999
2 40294  56.9874  30.9648 0067051  70.5842 290.1982  2.00576071 85209
COSMOS 2501 [GLONASS-K] 
1 40315U 14075A   26168.30070612  .00000063  00000+0  00000+0 0  9999
2 40315  63.6163 190.3680 0022630 212.5057 147.4049  2.13101233 89857
NAVSTAR 73 (USA 260)    
1 40534U 15013A   26168.06245060  .00000048  00000+0  00000+0 0  9992
2 40534  53.1678 204.1827 0109513  40.1299 320.7457  2.00551386 81823
GSAT0203 (GALILEO 7)    
1 40544U 15017A   26166.45306799 -.00000083  00000+0  00000+0 0  9995
2 40544  56.7863 341.6427 0002092 278.6810  81.2938  1.70475984 69175
GSAT0204 (GALILEO 8)    
1 40545U 15017B   26165.53569013 -.00000079  00000+0  00000+0 0  9999
2 40545  56.7953 341.6863 0001910 248.0709 111.9109  1.70475571 32203
